{
  "type": "FeatureCollection",
  "features": [
    {
      "type": "Feature",
      "properties": {
        "norad_id": 26766,
        "name": "INTELSAT 10 (IS-10)",
        "group": "intelsat",
        "lat": -7.219899795284377,
        "lon": 4.763798716711693,
        "alt_km": 36117.481134988564,
        "timestamp": "2025-12-21T11:31:42.509666+00:00",
        "meta_object_name": "INTELSAT 10 (IS-10)",
        "meta_object_id": "2001-019A",
        "meta_epoch": "2025-12-20T17:29:18.796128",
        "meta_mean_motion": 0.9907436,
        "meta_eccentricity": 0.00077475,
        "meta_inclination": 8.6473,
        "meta_ra_of_asc_node": 61.0766,
        "meta_arg_of_pericenter": 228.8053,
        "meta_mean_anomaly": 166.3968,
        "meta_ephemeris_type": 0,
        "meta_classification_type": "U",
        "meta_norad_cat_id": 26766,
        "meta_element_set_no": 999,
        "meta_rev_at_epoch": 4381,
        "meta_bstar": 0,
        "meta_mean_motion_dot": -1.02e-06,
        "meta_mean_motion_ddot": 0,
        "tle_line1": "1 26766U 01019A   25354.72868977 -.00000102  00000+0  00000+0 0  9993",
        "tle_line2": "2 26766   8.6473  61.0766 0007747 228.8053 166.3968  0.99074360 43819"
      },
      "geometry": {
        "type": "Point",
        "coordinates": [
          4.763798716711693,
          -7.219899795284377
        ]
      }
    },
    {
      "type": "Feature",
      "properties": {
        "norad_id": 26900,
        "name": "INTELSAT 902 (IS-902)",
        "group": "intelsat",
        "lat": 3.701242507924188,
        "lon": -146.82332068020065,
        "alt_km": 35774.43988268031,
        "timestamp": "2025-12-21T11:31:42.509698+00:00",
        "meta_object_name": "INTELSAT 902 (IS-902)",
        "meta_object_id": "2001-039A",
        "meta_epoch": "2025-12-15T13:09:02.081664",
        "meta_mean_motion": 1.0027087,
        "meta_eccentricity": 0.00045028,
        "meta_inclination": 5.6536,
        "meta_ra_of_asc_node": 74.0372,
        "meta_arg_of_pericenter": 189.6359,
        "meta_mean_anomaly": 327.9329,
        "meta_ephemeris_type": 0,
        "meta_classification_type": "U",
        "meta_norad_cat_id": 26900,
        "meta_element_set_no": 999,
        "meta_rev_at_epoch": 8885,
        "meta_bstar": 0,
        "meta_mean_motion_dot": -2.65e-06,
        "meta_mean_motion_ddot": 0,
        "tle_line1": "1 26900U 01039A   25349.54794076 -.00000265  00000+0  00000+0 0  9997",
        "tle_line2": "2 26900   5.6536  74.0372 0004502 189.6359 327.9329  1.00270870 88858"
      },
      "geometry": {
        "type": "Point",
        "coordinates": [
          -146.82332068020065,
          3.701242507924188
        ]
      }
    },
    {
      "type": "Feature",
      "properties": {
        "norad_id": 27380,
        "name": "INTELSAT 904 (IS-904)",
        "group": "intelsat",
        "lat": 2.1567500008524116,
        "lon": -128.1854625757428,
        "alt_km": 35785.90914689625,
        "timestamp": "2025-12-21T11:31:42.509716+00:00",
        "meta_object_name": "INTELSAT 904 (IS-904)",
        "meta_object_id": "2002-007A",
        "meta_epoch": "2025-12-21T02:46:31.544832",
        "meta_mean_motion": 1.00270749,
        "meta_eccentricity": 0.0001855,
        "meta_inclination": 6.4742,
        "meta_ra_of_asc_node": 71.3362,
        "meta_arg_of_pericenter": 249.0229,
        "meta_mean_anomaly": 139.7067,
        "meta_ephemeris_type": 0,
        "meta_classification_type": "U",
        "meta_norad_cat_id": 27380,
        "meta_element_set_no": 999,
        "meta_rev_at_epoch": 4998,
        "meta_bstar": 0,
        "meta_mean_motion_dot": -2.07e-06,
        "meta_mean_motion_ddot": 0,
        "tle_line1": "1 27380U 02007A   25355.11564288 -.00000207  00000+0  00000+0 0  9992",
        "tle_line2": "2 27380   6.4742  71.3362 0001855 249.0229 139.7067  1.00270749 49987"
      },
      "geometry": {
        "type": "Point",
        "coordinates": [
          -128.1854625757428,
          2.1567500008524116
        ]
      }
    },
    {
      "type": "Feature",
      "properties": {
        "norad_id": 27426,
        "name": "DIRECTV 5 (TEMPO 1)",
        "group": "intelsat",
        "lat": 4.298239041523941,
        "lon": 153.03254034478962,
        "alt_km": 35792.64565204662,
        "timestamp": "2025-12-21T11:31:42.509731+00:00",
        "meta_object_name": "DIRECTV 5 (TEMPO 1)",
        "meta_object_id": "2002-023A",
        "meta_epoch": "2025-12-20T21:15:58.348800",
        "meta_mean_motion": 1.00271691,
        "meta_eccentricity": 0.0003111,
        "meta_inclination": 4.4215,
        "meta_ra_of_asc_node": 77.5576,
        "meta_arg_of_pericenter": 198.1661,
        "meta_mean_anomaly": 22.8633,
        "meta_ephemeris_type": 0,
        "meta_classification_type": "U",
        "meta_norad_cat_id": 27426,
        "meta_element_set_no": 999,
        "meta_rev_at_epoch": 8633,
        "meta_bstar": 0,
        "meta_mean_motion_dot": -3.7e-07,
        "meta_mean_motion_ddot": 0,
        "tle_line1": "1 27426U 02023A   25354.88609200 -.00000037  00000+0  00000+0 0  9999",
        "tle_line2": "2 27426   4.4215  77.5576 0003111 198.1661  22.8633  1.00271691 86335"
      },
      "geometry": {
        "type": "Point",
        "coordinates": [
          153.03254034478962,
          4.298239041523941
        ]
      }
    },
    {
      "type": "Feature",
      "properties": {
        "norad_id": 27438,
        "name": "INTELSAT 905 (IS-905)",
        "group": "intelsat",
        "lat": 5.124937686313401,
        "lon": 125.83596993416236,
        "alt_km": 35794.7187040188,
        "timestamp": "2025-12-21T11:31:42.509745+00:00",
        "meta_object_name": "INTELSAT 905 (IS-905)",
        "meta_object_id": "2002-027A",
        "meta_epoch": "2025-12-20T10:52:51.499776",
        "meta_mean_motion": 1.00272487,
        "meta_eccentricity": 0.00026639,
        "meta_inclination": 6.3037,
        "meta_ra_of_asc_node": 71.9674,
        "meta_arg_of_pericenter": 202.299,
        "meta_mean_anomaly": 201.0262,
        "meta_ephemeris_type": 0,
        "meta_classification_type": "U",
        "meta_norad_cat_id": 27438,
        "meta_element_set_no": 999,
        "meta_rev_at_epoch": 4957,
        "meta_bstar": 0,
        "meta_mean_motion_dot": 1.12e-06,
        "meta_mean_motion_ddot": 0,
        "tle_line1": "1 27438U 02027A   25354.45337384  .00000112  00000+0  00000+0 0  9993",
        "tle_line2": "2 27438   6.3037  71.9674 0002663 202.2990 201.0262  1.00272487 49579"
      },
      "geometry": {
        "type": "Point",
        "coordinates": [
          125.83596993416236,
          5.124937686313401
        ]
      }
    },
    {
      "type": "Feature",
      "properties": {
        "norad_id": 27445,
        "name": "GALAXY 3C (G-3C)",
        "group": "intelsat",
        "lat": 3.291038275134885,
        "lon": 168.36477549340918,
        "alt_km": 35780.85691881541,
        "timestamp": "2025-12-21T11:31:42.509758+00:00",
        "meta_object_name": "GALAXY 3C (G-3C)",
        "meta_object_id": "2002-030A",
        "meta_epoch": "2025-12-21T04:16:38.932032",
        "meta_mean_motion": 1.00272092,
        "meta_eccentricity": 0.0001139,
        "meta_inclination": 3.2835,
        "meta_ra_of_asc_node": 80.4177,
        "meta_arg_of_pericenter": 79.2121,
        "meta_mean_anomaly": 259.6765,
        "meta_ephemeris_type": 0,
        "meta_classification_type": "U",
        "meta_norad_cat_id": 27445,
        "meta_element_set_no": 999,
        "meta_rev_at_epoch": 4470,
        "meta_bstar": 0,
        "meta_mean_motion_dot": -1.32e-06,
        "meta_mean_motion_ddot": 0,
        "tle_line1": "1 27445U 02030A   25355.17822838 -.00000132  00000+0  00000+0 0  9991",
        "tle_line2": "2 27445   3.2835  80.4177 0001139  79.2121 259.6765  1.00272092 44706"
      },
      "geometry": {
        "type": "Point",
        "coordinates": [
          168.36477549340918,
          3.291038275134885
        ]
      }
    },
    {
      "type": "Feature",
      "properties": {
        "norad_id": 27513,
        "name": "INTELSAT 906 (IS-906)",
        "group": "intelsat",
        "lat": -5.115793371216492,
        "lon": -32.654250775447416,
        "alt_km": 35770.36728968608,
        "timestamp": "2025-12-21T11:31:42.509772+00:00",
        "meta_object_name": "INTELSAT 906 (IS-906)",
        "meta_object_id": "2002-041A",
        "meta_epoch": "2025-12-20T20:07:29.951904",
        "meta_mean_motion": 1.00272914,
        "meta_eccentricity": 0.0006313,
        "meta_inclination": 5.3501,
        "meta_ra_of_asc_node": 75.1356,
        "meta_arg_of_pericenter": 199.098,
        "meta_mean_anomaly": 181.4397,
        "meta_ephemeris_type": 0,
        "meta_classification_type": "U",
        "meta_norad_cat_id": 27513,
        "meta_element_set_no": 999,
        "meta_rev_at_epoch": 8524,
        "meta_bstar": 0,
        "meta_mean_motion_dot": 3.2e-07,
        "meta_mean_motion_ddot": 0,
        "tle_line1": "1 27513U 02041A   25354.83854111  .00000032  00000+0  00000+0 0  9998",
        "tle_line2": "2 27513   5.3501  75.1356 0006313 199.0980 181.4397  1.00272914 85248"
      },
      "geometry": {
        "type": "Point",
        "coordinates": [
          -32.654250775447416,
          -5.115793371216492
        ]
      }
    }
  ]
}